#aV2016  7  5  0  0  0.00000000     288 DD+AD WGS84 FIT  NGA
## 1904 172800.00000000   300.00000000 57574 0.0000000000000
+   31     1  2  3  5  6  7  8  9 10 11 12 13 14 15 16 17 18
+         19 20 21 22 23 24 25 26 27 28 29 30 31 32  0  0  0
+          0  0  0  0  0  0  0  0  0  0  0  0  0  0  0  0  0
+          0  0  0  0  0  0  0  0  0  0  0  0  0  0  0  0  0
+          0  0  0  0  0  0  0  0  0  0  0  0  0  0  0  0  0
++         2  2  2  2  2  2  2  2  2  2  2  2  2  2  2  2  2
++         2  2  2  2  2  2  2  2  2  2  2  2  2  2  0  0  0
++         0  0  0  0  0  0  0  0  0  0  0  0  0  0  0  0  0
++         0  0  0  0  0  0  0  0  0  0  0  0  0  0  0  0  0
++         0  0  0  0  0  0  0  0  0  0  0  0  0  0  0  0  0
%c cc cc ccc ccc cccc cccc cccc cccc ccccc ccccc ccccc ccccc
%c cc cc ccc ccc cccc cccc cccc cccc ccccc ccccc ccccc ccccc
%f  0.0000000  0.000000000  0.00000000000  0.000000000000000
%f  0.0000000  0.000000000  0.00000000000  0.000000000000000
%i    0    0    0    0      0      0      0      0         0
%i    0    0    0    0      0      0      0      0         0
/*      NGA, ST. LOUIS,MO.                                  
/*   EPHEMERIS COMPUTED FROM 2 DAYS OF DATA                 
/*   EPOCHA v2.4 SMOOTHER                                   
/*   G1762  SATAF SATAPC                                    
*  2016  7  5  9 40  0.00000000
P  1 -21458.518352 -12465.414369   9708.240468     25.874985                    
V  1  -7003.798817 -10437.160129 -28392.722880      0.012564                    
P  2  12363.269249  21663.736871  10109.430802    579.627887                    
V  2 -10577.573509  -6419.008360  27548.435827     -0.038226                    
P  3 -14964.429911  -3099.205722  21729.620340    -70.457320                    
V  3   7280.553814 -26605.297041   1220.721013     -0.031811                    
P  5   5693.003658  21044.910609 -15096.783691   -107.742281                    
V  5  -7283.185305  17908.676325  22510.218860      0.028198                    
P  6   -962.491212  18143.932204  19383.289233    214.276620                    
V  6 -18142.456017 -16625.863862  14674.725777      0.053084                    
P  7 -17153.821263   2045.205783 -20144.082283    444.078367                    
V  7 -17012.251347 -19370.049461  12026.157501     -0.025180                    
P  8 -18315.596828  -7761.583981 -17572.674500    -41.580397                    
V  8  21220.733142  -7301.652975 -18800.468978     -0.014735                    
P  9 -25649.324494   6930.417902   -139.494521    161.553748                    
V  9   -930.576382  -2859.954998  31605.762559      0.072398                    
P 10  10747.120881 -23506.488704  -5931.748788    -59.427351                    
V 10    727.051723   8053.644538 -30557.343561     -0.075480                    
P 11 -24135.590131 -11117.424676   -352.933757   -654.740352                    
V 11   1776.192783  -4425.532833 -30271.177936     -0.014250                    
P 12  12905.133796   6966.495371  22020.990356    384.523122                    
V 12  -9055.955013  26700.050111  -2918.752781      0.009524                    
P 13   9947.718621  13083.685093 -20968.403528    -29.160358                    
V 13 -25971.423902   4410.716062  -9707.815576     -0.024798                    
P 14   9177.046816 -15537.885632  19703.069962    -22.945304                    
V 14  24322.316918  -3083.937346 -14107.856167     -0.020176                    
P 15  20607.838847   5876.434522 -16032.524635   -318.100048                    
V 15 -18410.679697   8334.778156 -20422.605080     -0.015718                    
P 16  -3237.088860 -21201.744558 -15514.331368     -6.634030                    
V 16   8043.664500 -17944.313092  23372.090238      0.023156                    
P 17 -15923.023399  14322.205993  15919.095661   -203.963847                    
V 17 -19564.145007   2443.633085 -22409.713413      0.000393                    
P 18  15328.235935 -14799.501779 -15156.533321    533.354383                    
V 18  -1828.990351  20577.996988 -21432.958342      0.037482                    
P 19  -7429.778195  15173.622652  20334.602195   -525.151338                    
V 19 -26044.230004   3386.484275 -11548.753128      0.002318                    
P 20  14926.091145   6561.023441 -21113.448035    422.444990                    
V 20  -5435.761314  26055.325086   4324.248842      0.022217                    
P 21  15495.331871  -5609.850699 -20122.813643   -527.599555                    
V 21  18985.112720  19650.001376   8589.518229     -0.009424                    
P 22 -12658.711834 -12297.756985  20062.562122    304.224664                    
V 22   7236.520886 -24100.345860 -10450.154481     -0.090337                    
P 23 -25327.104112    -41.732509   8916.825756   -180.900867                    
V 23   9922.520565  -5289.145534  28369.107222     -0.015500                    
P 24  21427.435065  14577.120956   6210.482635    -19.644534                    
V 24   3679.056657   7598.940763 -30051.252419     -0.006544                    
P 25  15880.600148  -7048.047663  19904.142611   -202.709161                    
V 25  -5840.724808  24912.495083  13578.127886     -0.070191                    
P 26   2755.719901 -25759.326332  -5755.309562   -414.909215                    
V 26   4579.755461  -6339.466502  30639.916404     -0.103778                    
P 27  -6988.628910 -13551.756703 -21799.326176    111.149421                    
V 27  26577.342098  -7214.130404  -3875.135321      0.043243                    
P 28 -12646.966037  22180.538453  -6601.105425    534.974097                    
V 28   1277.254423  -9329.928754 -30920.419671      0.027124                    
P 29  26180.766554  -3264.076879   2851.849119    655.906648                    
V 29  -3097.345109   2958.040523  31885.492631     -0.004708                    
P 30 -10546.826582  11312.249897 -21592.244301    137.680230                    
V 30 -18069.890175 -20655.723906  -2102.981477      0.024742                    
P 31  -1616.171498 -19650.332255  17720.746505    260.475939                    
V 31  16386.809680  15380.143404  19008.105688     -0.019850                    
P 32  14476.988676 -15457.100544  16030.757174    -40.353623                    
V 32  20165.759508  -3318.496665 -21445.786047     -0.094863                    
EOF
